[
    {
        "Altitude(m)": 571551.2442323138,
        "Argument of Periapsis(deg)": 0.0,
        "Eccentricity": 0.0,
        "Inclination(deg)": 53.0,
        "Latitude(deg)": -52.38810075873224,
        "Longitude(deg)": 26.624229487536606,
        "Mean Anomaly(deg)": -98.18179999999994,
        "RAAN(deg)": 229.99999999999997,
        "Satellite Name": "Starlink Shell 1 1028",
        "Satellite Number": 1028,
        "Semi-Major Axis(m)": 6931778.249405717,
        "Time(s)": 0
    },
    {
        "Altitude(m)": 571594.386164139,
        "Argument of Periapsis(deg)": 0.00034857847951123687,
        "Eccentricity": 0.0,
        "Inclination(deg)": 53.0,
        "Latitude(deg)": -52.49954252307325,
        "Longitude(deg)": 27.58862607177085,
        "Mean Anomaly(deg)": -97.55496879644328,
        "RAAN(deg)": 229.99948122992248,
        "Satellite Name": "Starlink Shell 1 1028",
        "Satellite Number": 1028,
        "Semi-Major Axis(m)": 6931778.249405717,
        "Time(s)": 10
    },
    {
        "Altitude(m)": 571634.1471580523,
        "Argument of Periapsis(deg)": 0.0006971569590224737,
        "Eccentricity": 0.0,
        "Inclination(deg)": 53.0,
        "Latitude(deg)": -52.602396896003036,
        "Longitude(deg)": 28.557915392706693,
        "Mean Anomaly(deg)": -96.92813759288654,
        "RAAN(deg)": 229.99896245984507,
        "Satellite Name": "Starlink Shell 1 1028",
        "Satellite Number": 1028,
        "Semi-Major Axis(m)": 6931778.249405717,
        "Time(s)": 20
    },
    {
        "Altitude(m)": 571670.5113317305,
        "Argument of Periapsis(deg)": 0.0010457354385337105,
        "Eccentricity": 0.0,
        "Inclination(deg)": 53.0,
        "Latitude(deg)": -52.696592274156316,
        "Longitude(deg)": 29.531741491633987,
        "Mean Anomaly(deg)": -96.30130638932985,
        "RAAN(deg)": 229.99844368976758,
        "Satellite Name": "Starlink Shell 1 1028",
        "Satellite Number": 1028,
        "Semi-Major Axis(m)": 6931778.249405717,
        "Time(s)": 30
    },
    {
        "Altitude(m)": 571703.4641560443,
        "Argument of Periapsis(deg)": 0.0013943139180449475,
        "Eccentricity": 0.0,
        "Inclination(deg)": 53.0,
        "Latitude(deg)": -52.78206239280326,
        "Longitude(deg)": 30.509736485160616,
        "Mean Anomaly(deg)": -95.67447518577309,
        "RAAN(deg)": 229.9979249196901,
        "Satellite Name": "Starlink Shell 1 1028",
        "Satellite Number": 1028,
        "Semi-Major Axis(m)": 6931778.249405717,
        "Time(s)": 40
    },
    {
        "Altitude(m)": 571732.9924613517,
        "Argument of Periapsis(deg)": 0.0017428923975561844,
        "Eccentricity": 0.0,
        "Inclination(deg)": 53.0,
        "Latitude(deg)": -52.858746547631775,
        "Longitude(deg)": 31.491520390089327,
        "Mean Anomaly(deg)": -95.04764398221646,
        "RAAN(deg)": 229.99740614961266,
        "Satellite Name": "Starlink Shell 1 1028",
        "Satellite Number": 1028,
        "Semi-Major Axis(m)": 6931778.249405717,
        "Time(s)": 50
    },
    {
        "Altitude(m)": 571759.0844432007,
        "Argument of Periapsis(deg)": 0.002091470877067421,
        "Eccentricity": 0.0,
        "Inclination(deg)": 53.0,
        "Latitude(deg)": -52.92658980130239,
        "Longitude(deg)": 32.476702537650254,
        "Mean Anomaly(deg)": -94.4208127786598,
        "RAAN(deg)": 229.99688737953517,
        "Satellite Name": "Starlink Shell 1 1028",
        "Satellite Number": 1028,
        "Semi-Major Axis(m)": 6931778.249405717,
        "Time(s)": 60
    },
    {
        "Altitude(m)": 571781.7296674345,
        "Argument of Periapsis(deg)": 0.0024400493565786582,
        "Eccentricity": 0.0,
        "Inclination(deg)": 53.0,
        "Latitude(deg)": -52.98554317318144,
        "Longitude(deg)": 33.464883059709905,
        "Mean Anomaly(deg)": -93.79398157510293,
        "RAAN(deg)": 229.99636860945768,
        "Satellite Name": "Starlink Shell 1 1028",
        "Satellite Number": 1028,
        "Semi-Major Axis(m)": 6931778.249405717,
        "Time(s)": 70
    },
    {
        "Altitude(m)": 571800.9190747082,
        "Argument of Periapsis(deg)": 0.002788627836089895,
        "Eccentricity": 0.0,
        "Inclination(deg)": 53.0,
        "Latitude(deg)": -53.035563810758134,
        "Longitude(deg)": 34.455652928705824,
        "Mean Anomaly(deg)": -93.16715037154628,
        "RAAN(deg)": 229.9958498393802,
        "Satellite Name": "Starlink Shell 1 1028",
        "Satellite Number": 1028,
        "Semi-Major Axis(m)": 6931778.249405717,
        "Time(s)": 80
    },
    {
        "Altitude(m)": 571816.6449844125,
        "Argument of Periapsis(deg)": 0.0031372063156011316,
        "Eccentricity": 0.0,
        "Inclination(deg)": 53.0,
        "Latitude(deg)": -53.07661514136062,
        "Longitude(deg)": 35.44859557083868,
        "Mean Anomaly(deg)": -92.54031916798961,
        "RAAN(deg)": 229.99533106930272,
        "Satellite Name": "Starlink Shell 1 1028",
        "Satellite Number": 1028,
        "Semi-Major Axis(m)": 6931778.249405717,
        "Time(s)": 90
    },
    {
        "Altitude(m)": 571828.901097988,
        "Argument of Periapsis(deg)": 0.0034857847951123688,
        "Eccentricity": 0.0,
        "Inclination(deg)": 53.0,
        "Latitude(deg)": -53.108667002932414,
        "Longitude(deg)": 36.443288532658926,
        "Mean Anomaly(deg)": -91.91348796443285,
        "RAAN(deg)": 229.99481229922526,
        "Satellite Name": "Starlink Shell 1 1028",
        "Satellite Number": 1028,
        "Semi-Major Axis(m)": 6931778.249405717,
        "Time(s)": 100
    },
    {
        "Altitude(m)": 571837.6825016652,
        "Argument of Periapsis(deg)": 0.003834363274623606,
        "Eccentricity": 0.0,
        "Inclination(deg)": 53.0,
        "Latitude(deg)": -53.13169575278722,
        "Longitude(deg)": 37.439303680497765,
        "Mean Anomaly(deg)": -91.28665676087611,
        "RAAN(deg)": 229.9942935291478,
        "Satellite Name": "Starlink Shell 1 1028",
        "Satellite Number": 1028,
        "Semi-Major Axis(m)": 6931778.249405717,
        "Time(s)": 110
    },
    {
        "Altitude(m)": 571842.9856685806,
        "Argument of Periapsis(deg)": 0.004182941754134842,
        "Eccentricity": 0.0,
        "Inclination(deg)": 53.0,
        "Latitude(deg)": -53.145684353423626,
        "Longitude(deg)": 38.4362089501976,
        "Mean Anomaly(deg)": -90.65982555731945,
        "RAAN(deg)": 229.9937747590703,
        "Satellite Name": "Starlink Shell 1 1028",
        "Satellite Number": 1028,
        "Semi-Major Axis(m)": 6931778.249405717,
        "Time(s)": 120
    },
    {
        "Altitude(m)": 571844.8084603059,
        "Argument of Periapsis(deg)": 0.004531520233646079,
        "Eccentricity": 0.0,
        "Inclination(deg)": 53.0,
        "Latitude(deg)": -53.15062243467575,
        "Longitude(deg)": 39.433570125480664,
        "Mean Anomaly(deg)": -90.03299435376275,
        "RAAN(deg)": 229.99325598899281,
        "Satellite Name": "Starlink Shell 1 1028",
        "Satellite Number": 1028,
        "Semi-Major Axis(m)": 6931778.249405717,
        "Time(s)": 130
    },
    {
        "Altitude(m)": 571843.1501277862,
        "Argument of Periapsis(deg)": 0.0048800987131573164,
        "Eccentricity": 0.0,
        "Inclination(deg)": 53.0,
        "Latitude(deg)": -53.14650633167165,
        "Longitude(deg)": 40.43095112290544,
        "Mean Anomaly(deg)": -89.40616315020593,
        "RAAN(deg)": 229.9927372189154,
        "Satellite Name": "Starlink Shell 1 1028",
        "Satellite Number": 1028,
        "Semi-Major Axis(m)": 6931778.249405717,
        "Time(s)": 140
    },
    {
        "Altitude(m)": 571838.0113116528,
        "Argument of Periapsis(deg)": 0.005228677192668553,
        "Eccentricity": 0.0,
        "Inclination(deg)": 53.0,
        "Latitude(deg)": -53.13333909826928,
        "Longitude(deg)": 41.42791579971126,
        "Mean Anomaly(deg)": -88.77933194664925,
        "RAAN(deg)": 229.99221844883792,
        "Satellite Name": "Starlink Shell 1 1028",
        "Satellite Number": 1028,
        "Semi-Major Axis(m)": 6931778.249405717,
        "Time(s)": 150
    },
    {
        "Altitude(m)": 571829.3940419543,
        "Argument of Periapsis(deg)": 0.00557725567217979,
        "Eccentricity": 0.0,
        "Inclination(deg)": 53.0,
        "Latitude(deg)": -53.111130495857225,
        "Longitude(deg)": 42.42402976210149,
        "Mean Anomaly(deg)": -88.15250074309259,
        "RAAN(deg)": 229.99169967876043,
        "Satellite Name": "Starlink Shell 1 1028",
        "Satellite Number": 1028,
        "Semi-Major Axis(m)": 6931778.249405717,
        "Time(s)": 160
    },
    {
        "Altitude(m)": 571817.3017372814,
        "Argument of Periapsis(deg)": 0.0059258341516910265,
        "Eccentricity": 0.0,
        "Inclination(deg)": 53.0,
        "Latitude(deg)": -53.07989695761843,
        "Longitude(deg)": 43.41886065150361,
        "Mean Anomaly(deg)": -87.52566953953576,
        "RAAN(deg)": 229.99118090868296,
        "Satellite Name": "Starlink Shell 1 1028",
        "Satellite Number": 1028,
        "Semi-Major Axis(m)": 6931778.249405717,
        "Time(s)": 170
    },
    {
        "Altitude(m)": 571801.739203304,
        "Argument of Periapsis(deg)": 0.006274412631202263,
        "Eccentricity": 0.0,
        "Inclination(deg)": 53.0,
        "Latitude(deg)": -53.03966152855899,
        "Longitude(deg)": 44.411979925088154,
        "Mean Anomaly(deg)": -86.89883833597906,
        "RAAN(deg)": 229.9906621386055,
        "Satellite Name": "Starlink Shell 1 1028",
        "Satellite Number": 1028,
        "Semi-Major Axis(m)": 6931778.249405717,
        "Time(s)": 180
    }
]